{
  "type": "FeatureCollection",
  "features": [
    {
      "type": "Feature",
      "properties": {
        "norad_id": 30326,
        "name": "FENGYUN 1C DEB",
        "group": "fengyun-1c-debris",
        "lat": -57.440236380635625,
        "lon": -98.10548524484734,
        "alt_km": 880.8554227347295,
        "timestamp": "2025-12-27T22:26:48.878793+00:00",
        "meta_object_name": "FENGYUN 1C DEB",
        "meta_object_id": "1999-025AAM",
        "meta_epoch": "2025-12-27T05:23:23.472672",
        "meta_mean_motion": 13.85482436,
        "meta_eccentricity": 0.0141792,
        "meta_inclination": 98.6536,
        "meta_ra_of_asc_node": 247.4405,
        "meta_arg_of_pericenter": 351.2094,
        "meta_mean_anomaly": 8.6584,
        "meta_ephemeris_type": 0,
        "meta_classification_type": "U",
        "meta_norad_cat_id": 30326,
        "meta_element_set_no": 999,
        "meta_rev_at_epoch": 95656,
        "meta_bstar": 0.00022736,
        "meta_mean_motion_dot": 2.4e-06,
        "meta_mean_motion_ddot": 0,
        "tle_line1": "1 30326U 99025AAM 25361.22457723  .00000240  00000+0  22736-3 0  9996",
        "tle_line2": "2 30326  98.6536 247.4405 0141792 351.2094   8.6584 13.85482436956563"
      },
      "geometry": {
        "type": "Point",
        "coordinates": [
          -98.10548524484734,
          -57.440236380635625
        ]
      }
    },
    {
      "type": "Feature",
      "properties": {
        "norad_id": 30327,
        "name": "FENGYUN 1C DEB",
        "group": "fengyun-1c-debris",
        "lat": 25.892544905314036,
        "lon": 79.6450855446288,
        "alt_km": 781.436631780386,
        "timestamp": "2025-12-27T22:26:48.878803+00:00",
        "meta_object_name": "FENGYUN 1C DEB",
        "meta_object_id": "1999-025AAN",
        "meta_epoch": "2025-12-25T15:51:00.966240",
        "meta_mean_motion": 14.18072996,
        "meta_eccentricity": 0.0117934,
        "meta_inclination": 98.444,
        "meta_ra_of_asc_node": 253.3456,
        "meta_arg_of_pericenter": 105.2893,
        "meta_mean_anomaly": 320.5171,
        "meta_ephemeris_type": 0,
        "meta_classification_type": "U",
        "meta_norad_cat_id": 30327,
        "meta_element_set_no": 999,
        "meta_rev_at_epoch": 96626,
        "meta_bstar": 0.0017977,
        "meta_mean_motion_dot": 3.91e-05,
        "meta_mean_motion_ddot": 0,
        "tle_line1": "1 30327U 99025AAN 25359.66042785  .00003910  00000+0  17977-2 0  9997",
        "tle_line2": "2 30327  98.4440 253.3456 0117934 105.2893 320.5171 14.18072996966262"
      },
      "geometry": {
        "type": "Point",
        "coordinates": [
          79.6450855446288,
          25.892544905314036
        ]
      }
    },
    {
      "type": "Feature",
      "properties": {
        "norad_id": 30328,
        "name": "FENGYUN 1C DEB",
        "group": "fengyun-1c-debris",
        "lat": 4.367548558552106,
        "lon": 10.921382276473121,
        "alt_km": 854.7900457873538,
        "timestamp": "2025-12-27T22:26:48.878813+00:00",
        "meta_object_name": "FENGYUN 1C DEB",
        "meta_object_id": "1999-025AAP",
        "meta_epoch": "2025-12-27T12:48:05.404032",
        "meta_mean_motion": 14.12480996,
        "meta_eccentricity": 0.0006316,
        "meta_inclination": 98.6861,
        "meta_ra_of_asc_node": 11.2008,
        "meta_arg_of_pericenter": 115.9401,
        "meta_mean_anomaly": 6.2125,
        "meta_ephemeris_type": 0,
        "meta_classification_type": "U",
        "meta_norad_cat_id": 30328,
        "meta_element_set_no": 999,
        "meta_rev_at_epoch": 97473,
        "meta_bstar": 0.00013644,
        "meta_mean_motion_dot": 2.09e-06,
        "meta_mean_motion_ddot": 0,
        "tle_line1": "1 30328U 99025AAP 25361.53339588  .00000209  00000+0  13644-3 0  9993",
        "tle_line2": "2 30328  98.6861  11.2008 0006316 115.9401   6.2125 14.12480996974735"
      },
      "geometry": {
        "type": "Point",
        "coordinates": [
          10.921382276473121,
          4.367548558552106
        ]
      }
    },
    {
      "type": "Feature",
      "properties": {
        "norad_id": 30329,
        "name": "FENGYUN 1C DEB",
        "group": "fengyun-1c-debris",
        "lat": 79.81545053558679,
        "lon": 166.4525031748072,
        "alt_km": 947.8623327007663,
        "timestamp": "2025-12-27T22:26:48.878823+00:00",
        "meta_object_name": "FENGYUN 1C DEB",
        "meta_object_id": "1999-025AAQ",
        "meta_epoch": "2025-12-27T08:44:36.941280",
        "meta_mean_motion": 13.86758921,
        "meta_eccentricity": 0.014196,
        "meta_inclination": 99.2633,
        "meta_ra_of_asc_node": 280.5979,
        "meta_arg_of_pericenter": 356.503,
        "meta_mean_anomaly": 127.1708,
        "meta_ephemeris_type": 0,
        "meta_classification_type": "U",
        "meta_norad_cat_id": 30329,
        "meta_element_set_no": 999,
        "meta_rev_at_epoch": 95613,
        "meta_bstar": 0.00054526,
        "meta_mean_motion_dot": 6.43e-06,
        "meta_mean_motion_ddot": 0,
        "tle_line1": "1 30329U 99025AAQ 25361.36431645  .00000643  00000+0  54526-3 0  9998",
        "tle_line2": "2 30329  99.2633 280.5979 0141960 356.5030 127.1708 13.86758921956134"
      },
      "geometry": {
        "type": "Point",
        "coordinates": [
          166.4525031748072,
          79.81545053558679
        ]
      }
    },
    {
      "type": "Feature",
      "properties": {
        "norad_id": 30330,
        "name": "FENGYUN 1C DEB",
        "group": "fengyun-1c-debris",
        "lat": -53.43190263165808,
        "lon": 161.2509830854525,
        "alt_km": 962.03304689786,
        "timestamp": "2025-12-27T22:26:48.878833+00:00",
        "meta_object_name": "FENGYUN 1C DEB",
        "meta_object_id": "1999-025AAR",
        "meta_epoch": "2025-12-27T09:57:14.850144",
        "meta_mean_motion": 13.82102268,
        "meta_eccentricity": 0.018785,
        "meta_inclination": 98.8868,
        "meta_ra_of_asc_node": 352.9359,
        "meta_arg_of_pericenter": 145.1888,
        "meta_mean_anomaly": 18.4214,
        "meta_ephemeris_type": 0,
        "meta_classification_type": "U",
        "meta_norad_cat_id": 30330,
        "meta_element_set_no": 999,
        "meta_rev_at_epoch": 94860,
        "meta_bstar": 0.0012841,
        "meta_mean_motion_dot": 1.541e-05,
        "meta_mean_motion_ddot": 0,
        "tle_line1": "1 30330U 99025AAR 25361.41475521  .00001541  00000+0  12841-2 0  9998",
        "tle_line2": "2 30330  98.8868 352.9359 0187850 145.1888  18.4214 13.82102268948608"
      },
      "geometry": {
        "type": "Point",
        "coordinates": [
          161.2509830854525,
          -53.43190263165808
        ]
      }
    },
    {
      "type": "Feature",
      "properties": {
        "norad_id": 30331,
        "name": "FENGYUN 1C DEB",
        "group": "fengyun-1c-debris",
        "lat": -60.41734333034641,
        "lon": -159.98847824259298,
        "alt_km": 901.0064971400352,
        "timestamp": "2025-12-27T22:26:48.878865+00:00",
        "meta_object_name": "FENGYUN 1C DEB",
        "meta_object_id": "1999-025AAS",
        "meta_epoch": "2025-12-27T00:48:38.922048",
        "meta_mean_motion": 13.97849782,
        "meta_eccentricity": 0.00958608,
        "meta_inclination": 98.9553,
        "meta_ra_of_asc_node": 35.2593,
        "meta_arg_of_pericenter": 328.624,
        "meta_mean_anomaly": 59.978,
        "meta_ephemeris_type": 0,
        "meta_classification_type": "U",
        "meta_norad_cat_id": 30331,
        "meta_element_set_no": 999,
        "meta_rev_at_epoch": 96319,
        "meta_bstar": 0.00066806826,
        "meta_mean_motion_dot": 9.4e-06,
        "meta_mean_motion_ddot": 0,
        "tle_line1": "1 30331U 99025AAS 25361.03378382  .00000940  00000+0  66807-3 0  9998",
        "tle_line2": "2 30331  98.9553  35.2593 0095860 328.6240  59.9780 13.97849782963195"
      },
      "geometry": {
        "type": "Point",
        "coordinates": [
          -159.98847824259298,
          -60.41734333034641
        ]
      }
    },
    {
      "type": "Feature",
      "properties": {
        "norad_id": 30332,
        "name": "FENGYUN 1C DEB",
        "group": "fengyun-1c-debris",
        "lat": -13.263796507896913,
        "lon": 151.46247486224928,
        "alt_km": 1062.2471631919325,
        "timestamp": "2025-12-27T22:26:48.878876+00:00",
        "meta_object_name": "FENGYUN 1C DEB",
        "meta_object_id": "1999-025AAT",
        "meta_epoch": "2025-12-27T10:02:00.371040",
        "meta_mean_motion": 13.76723436,
        "meta_eccentricity": 0.0178215,
        "meta_inclination": 99.717,
        "meta_ra_of_asc_node": 333.2491,
        "meta_arg_of_pericenter": 64.9869,
        "meta_mean_anomaly": 84.6303,
        "meta_ephemeris_type": 0,
        "meta_classification_type": "U",
        "meta_norad_cat_id": 30332,
        "meta_element_set_no": 999,
        "meta_rev_at_epoch": 94917,
        "meta_bstar": 0.00050372,
        "meta_mean_motion_dot": 5.11e-06,
        "meta_mean_motion_ddot": 0,
        "tle_line1": "1 30332U 99025AAT 25361.41805985  .00000511  00000+0  50372-3 0  9999",
        "tle_line2": "2 30332  99.7170 333.2491 0178215  64.9869  84.6303 13.76723436949173"
      },
      "geometry": {
        "type": "Point",
        "coordinates": [
          151.46247486224928,
          -13.263796507896913
        ]
      }
    }
  ]
}